STARLINK-37376          
1 69378U 26123AB  26166.16668980 -.02111387  00000+0 -10585-1 0  9996
2 69378  53.1564 251.3032 0000776  80.0443 322.8484 15.84310669  2976
STARLINK-37383          
1 69379U 26123AC  26166.16668980 -.02147043  00000+0 -10443-1 0  9998
2 69379  53.1552 251.2341 0001031  62.1985  13.5198 15.84987523  2978
STARLINK-37411          
1 69380U 26123AD  26166.16668980 -.02129688  00000+0 -10718-1 0  9990
2 69380  53.1562 251.2879 0000791  78.5366 331.3489 15.84262450  2972
STARLINK-37427          
1 69381U 26123AE  26166.16668980 -.02088527  00000+0 -99752-2 0  9993
2 69381  53.1554 251.2460 0000800  87.0293 343.1033 15.85265332  2884
QIANFAN-165             
1 69382U 26124A   26164.79833279  .00000097  00000+0  37879-4 0  9993
2 69382  88.9991   2.4245 0002400 151.4164 208.7159 14.21216415  1335
QIANFAN-166             
1 69383U 26124B   26165.57131779  .00000087  00000+0  34317-4 0  9990
2 69383  88.9987   2.3361 0002073 121.9019 238.2373 14.19992843  1447
QIANFAN-167             
1 69384U 26124C   26164.93664244  .00000096  00000+0  37433-4 0  9990
2 69384  88.9952   2.4146 0006337 194.5230 165.5780 14.21105494  1355
QIANFAN-168             
1 69385U 26124D   26165.99181630 -.00000333  00000+0 -16146-3 0  9994
2 69385  88.9983   2.2873 0002637 135.7451 224.3951 14.20730433  1503
QIANFAN-169             
1 69386U 26124E   26166.20178922  .00000081  00000+0  30693-4 0  9992
2 69386  88.9985   2.2629 0003126 155.7407 204.3931 14.20977592  1530
QIANFAN-170             
1 69387U 26124F   26165.07434800  .00000096  00000+0  36120-4 0  9994
2 69387  88.9994   2.3837 0002252 116.5235 243.6188 14.23171609  1376
QIANFAN-171             
1 69388U 26124G   26164.79100397 -.01724011  00000+0 -86631+0 0  9994
2 69388  88.9981   2.4235 0022197 187.5923 172.4935 14.20530017  1332
QIANFAN-172             
1 69389U 26124H   26164.85713411 -.01443543  00000+0 -61077+0 0  9994
2 69389  88.9977   2.4156 0003179 174.9675 185.1552 14.29008880  1347
QIANFAN-173             
1 69390U 26124J   26164.93278677  .00000100  00000+0  36702-4 0  9992
2 69390  89.0007   2.4092 0002162 158.8999 201.2283 14.24972369  1354
QIANFAN-174             
1 69391U 26124K   26165.77481866  .00000093  00000+0  33594-4 0  9999
2 69391  88.9986   2.3096 0002348 168.9584 191.1661 14.24795547  1471
QIANFAN-175             
1 69392U 26124L   26165.07272091  .00000101  00000+0  36310-4 0  9990
2 69392  88.9984   2.3909 0002750 177.2611 182.8598 14.25625629  1373
QIANFAN-176             
1 69393U 26124M   26165.98500617  .00000093  00000+0  33279-4 0  9990
2 69393  88.9984   2.2862 0001980 174.4583 185.6632 14.25634434  1501
QIANFAN-177             
1 69394U 26124N   26166.12486624  .00000033  00000+0  79349-5 0  9992
2 69394  88.9981   2.2699 0002996 159.4942 200.6372 14.25688521  1524
QIANFAN-178             
1 69395U 26124P   26166.05484750  .00000069  00000+0  22795-4 0  9994
2 69395  88.9983   2.2780 0002382 164.9394 195.1871 14.25625994  1515
QIANFAN-179             
1 69396U 26124Q   26164.86006002 -.01971323  00000+0 -94572+0 0  9992
2 69396  88.9978   2.4153 0004352 107.3109 252.8559 14.22997940  1345
QIANFAN-180             
1 69397U 26124R   26165.00131773  .00000103  00000+0  36823-4 0  9990
2 69397  88.9984   2.3989 0002341 170.3819 189.7420 14.26489166  1360
QIANFAN-181             
1 69398U 26124S   26165.15061606  .00000093  00000+0  36215-4 0  9997
2 69398  88.9983   2.3842 0002118 140.0514 220.0833 14.21115081  1382
QIANFAN-182             
1 69399U 26124T   26164.79367052  .00000100  00000+0  37156-4 0  9995
2 69399  88.9961   2.4186 0003044 159.9795 200.1517 14.24123720  1335
DTC TEST OBJECT A       
1 69472U 26128A   26166.11227219  .00024012  00000+0  34818-3 0  9998
2 69472  54.9943 314.6138 0008301 281.0826  78.9276 15.55747781   907
DTC TEST OBJECT B       
1 69473U 26128B   26166.11121044  .00027380  00000+0  38968-3 0  9999
2 69473  55.0035 314.6104 0008350 281.9095  78.1004 15.56177503   895
TJS-25                  
1 69474U 26129A   26162.48255804  .00007407  00000+0  19774-2 0  9990
2 69474  16.5302  30.5351 7751889 199.9639  91.9387  1.72502163    78
2026-132A               
1 69502U 26132A   26166.15260109  .00000532  00000+0  48723-4 0  9998
2 69502  97.6913 229.8550 0012317 278.7409  81.2419 14.99042576   474
2026-132B               
1 69503U 26132B   26166.15241223  .00000296  00000+0  29232-4 0  9996
2 69503  97.6945 229.8565 0012239 280.9312  79.0534 14.99133507   475
BRO-22                  
1 69504U 26132C   26166.08440668  .00001294  00000+0  10936-3 0  9992
2 69504  97.6885 229.7879 0013753 292.7584  67.2186 14.99757877   463
2026-132D               
1 69505U 26132D   26164.41554847  .00001509  00000+0  12292-3 0  9999
2 69505  97.6871 228.1350 0011034 315.3023  44.7311 15.00977591   208
2026-132E               
1 69506U 26132E   26164.95816030  .00001978  00000+0  19337-3 0  9991
2 69506  97.6694 228.6931 0002823 327.8572  32.2476 14.93464297   293
