OBJECT_NAME,OBJECT_ID,EPOCH,MEAN_MOTION,ECCENTRICITY,INCLINATION,RA_OF_ASC_NODE,ARG_OF_PERICENTER,MEAN_ANOMALY,EPHEMERIS_TYPE,CLASSIFICATION_TYPE,NORAD_CAT_ID,ELEMENT_SET_NO,REV_AT_EPOCH,BSTAR,MEAN_MOTION_DOT,MEAN_MOTION_DDOT
STARLINK-37376,2026-123AB,2026-06-15T04:00:01.998720,15.84310669,.0000776,53.1564,251.3032,80.0443,322.8484,0,U,69378,999,297,-.10585E-1,-.2111387E-1,0
STARLINK-37383,2026-123AC,2026-06-15T04:00:01.998720,15.84987523,.0001031,53.1552,251.2341,62.1985,13.5198,0,U,69379,999,297,-.10443E-1,-.2147043E-1,0
STARLINK-37411,2026-123AD,2026-06-15T04:00:01.998720,15.84262450,.0000791,53.1562,251.2879,78.5366,331.3489,0,U,69380,999,297,-.10718E-1,-.2129688E-1,0
STARLINK-37427,2026-123AE,2026-06-15T04:00:01.998720,15.85265332,.00008,53.1554,251.2460,87.0293,343.1033,0,U,69381,999,288,-.99752E-2,-.2088527E-1,0
QIANFAN-165,2026-124A,2026-06-13T19:09:35.953056,14.21216415,.00024,88.9991,2.4245,151.4164,208.7159,0,U,69382,999,133,.37879E-4,.97E-6,0
QIANFAN-166,2026-124B,2026-06-14T13:42:41.857056,14.19992843,.0002073,88.9987,2.3361,121.9019,238.2373,0,U,69383,999,144,.34317E-4,.87E-6,0
QIANFAN-167,2026-124C,2026-06-13T22:28:45.906816,14.21105494,.00063376,88.9952,2.4146,194.5230,165.5780,0,U,69384,999,135,.37432582E-4,.96E-6,0
QIANFAN-168,2026-124D,2026-06-14T23:48:12.928320,14.20730433,.0002637,88.9983,2.2873,135.7451,224.3951,0,U,69385,999,150,-.16146E-3,-.333E-5,0
QIANFAN-169,2026-124E,2026-06-15T04:50:34.588608,14.20977592,.0003126,88.9985,2.2629,155.7407,204.3931,0,U,69386,999,153,.30693E-4,.81E-6,0
QIANFAN-170,2026-124F,2026-06-14T01:47:03.667200,14.23171609,.00022529,88.9994,2.3837,116.5235,243.6188,0,U,69387,999,137,.36119611E-4,.96E-6,0
QIANFAN-171,2026-124G,2026-06-13T18:59:02.743008,14.20530017,.0022197,88.9981,2.4235,187.5923,172.4935,0,U,69388,999,133,-.86631143E+0,-.1724011E-1,0
QIANFAN-172,2026-124H,2026-06-13T20:34:16.387104,14.29008880,.0003179,88.9977,2.4156,174.9675,185.1552,0,U,69389,999,134,-.61076877E+0,-.1443543E-1,0
QIANFAN-173,2026-124J,2026-06-13T22:23:12.776928,14.24972369,.00021626,89.0007,2.4092,158.8999,201.2283,0,U,69390,999,135,.36702002E-4,.1E-5,0
QIANFAN-174,2026-124K,2026-06-14T18:35:44.332224,14.24795547,.0002348,88.9986,2.3096,168.9584,191.1661,0,U,69391,999,147,.33594E-4,.93E-6,0
QIANFAN-175,2026-124L,2026-06-14T01:44:43.086624,14.25625629,.00027504,88.9984,2.3909,177.2611,182.8598,0,U,69392,999,137,.36309812E-4,.101E-5,0
QIANFAN-176,2026-124M,2026-06-14T23:38:24.533088,14.25634434,.000198,88.9984,2.2862,174.4583,185.6632,0,U,69393,999,150,.33279E-4,.93E-6,0
QIANFAN-177,2026-124N,2026-06-15T02:59:48.443136,14.25688521,.0002996,88.9981,2.2699,159.4942,200.6372,0,U,69394,999,152,.79349E-5,.33E-6,0
QIANFAN-178,2026-124P,2026-06-15T01:18:58.824000,14.25625994,.0002382,88.9983,2.2780,164.9394,195.1871,0,U,69395,999,151,.22795E-4,.69E-6,0
QIANFAN-179,2026-124Q,2026-06-13T20:38:29.185728,14.22997940,.00043527,88.9978,2.4153,107.3109,252.8559,0,U,69396,999,134,-.94571829E+0,-.1971323E-1,0
QIANFAN-180,2026-124R,2026-06-14T00:01:53.851872,14.26489166,.00023412,88.9984,2.3989,170.3819,189.7420,0,U,69397,999,136,.3682278E-4,.103E-5,0
QIANFAN-181,2026-124S,2026-06-14T03:36:53.227584,14.21115081,.00021189,88.9983,2.3842,140.0514,220.0833,0,U,69398,999,138,.36214652E-4,.93E-6,0
QIANFAN-182,2026-124T,2026-06-13T19:02:53.132928,14.24123720,.0003044,88.9961,2.4186,159.9795,200.1517,0,U,69399,999,133,.37156E-4,.1E-5,0
DTC TEST OBJECT A,2026-128A,2026-06-15T02:41:40.317216,15.55747781,.0008301,54.9943,314.6138,281.0826,78.9276,0,U,69472,999,90,.34818E-3,.24012E-3,0
DTC TEST OBJECT B,2026-128B,2026-06-15T02:40:08.582016,15.56177503,.000835,55.0035,314.6104,281.9095,78.1004,0,U,69473,999,89,.38968E-3,.2738E-3,0
TJS-25,2026-129A,2026-06-11T11:34:53.014656,1.72502163,.7751889,16.5302,30.5351,199.9639,91.9387,0,U,69474,999,7,.19774E-2,.7407E-4,0
2026-132A,2026-132A,2026-06-15T03:39:44.734176,14.99042576,.0012317,97.6913,229.8550,278.7409,81.2419,0,U,69502,999,47,.48723E-4,.532E-5,0
2026-132B,2026-132B,2026-06-15T03:39:28.416672,14.99133507,.0012239,97.6945,229.8565,280.9312,79.0534,0,U,69503,999,47,.29232E-4,.296E-5,0
BRO-22,2026-132C,2026-06-15T02:01:32.737152,14.99757877,.0013753,97.6885,229.7879,292.7584,67.2186,0,U,69504,999,46,.10936E-3,.1294E-4,0
2026-132D,2026-132D,2026-06-13T09:58:23.387808,15.00977591,.00110344,97.6871,228.1350,315.3023,44.7311,0,U,69505,999,20,.12291978E-3,.1509E-4,0
2026-132E,2026-132E,2026-06-13T22:59:45.049920,14.93464297,.00028233,97.6694,228.6931,327.8572,32.2476,0,U,69506,999,29,.19336817E-3,.1978E-4,0
